{
  "type": "FeatureCollection",
  "features": [
    {
      "type": "Feature",
      "properties": {
        "norad_id": 32376,
        "name": "COSMO-SKYMED 2",
        "group": "resource",
        "lat": -80.61652491363337,
        "lon": -69.21510447638688,
        "alt_km": 630.9060173010175,
        "timestamp": "2025-12-12T09:49:08.384503+00:00",
        "meta_object_name": "COSMO-SKYMED 2",
        "meta_object_id": "2007-059A",
        "meta_epoch": "2025-12-12T03:46:00.206976",
        "meta_mean_motion": 14.82165302,
        "meta_eccentricity": 0.000151,
        "meta_inclination": 97.8811,
        "meta_ra_of_asc_node": 167.4896,
        "meta_arg_of_pericenter": 84.6795,
        "meta_mean_anomaly": 275.4591,
        "meta_ephemeris_type": 0,
        "meta_classification_type": "U",
        "meta_norad_cat_id": 32376,
        "meta_element_set_no": 999,
        "meta_rev_at_epoch": 97429,
        "meta_bstar": 0.00012297,
        "meta_mean_motion_dot": 9.27e-06,
        "meta_mean_motion_ddot": 0,
        "tle_line1": "1 32376U 07059A   25346.15694684  .00000927  00000+0  12297-3 0  9996",
        "tle_line2": "2 32376  97.8811 167.4896 0001510  84.6795 275.4591 14.82165302974290"
      },
      "geometry": {
        "type": "Point",
        "coordinates": [
          -69.21510447638688,
          -80.61652491363337
        ]
      }
    },
    {
      "type": "Feature",
      "properties": {
        "norad_id": 32382,
        "name": "RADARSAT-2",
        "group": "resource",
        "lat": -79.66175591370168,
        "lon": 46.860439416954485,
        "alt_km": 799.9068616147479,
        "timestamp": "2025-12-12T09:49:08.384514+00:00",
        "meta_object_name": "RADARSAT-2",
        "meta_object_id": "2007-061A",
        "meta_epoch": "2025-12-12T03:29:42.658368",
        "meta_mean_motion": 14.29981039,
        "meta_eccentricity": 0.0001115,
        "meta_inclination": 98.5801,
        "meta_ra_of_asc_node": 350.7442,
        "meta_arg_of_pericenter": 85.4978,
        "meta_mean_anomaly": 274.6332,
        "meta_ephemeris_type": 0,
        "meta_classification_type": "U",
        "meta_norad_cat_id": 32382,
        "meta_element_set_no": 999,
        "meta_rev_at_epoch": 93922,
        "meta_bstar": -1.491e-05,
        "meta_mean_motion_dot": -8.2e-07,
        "meta_mean_motion_ddot": 0,
        "tle_line1": "1 32382U 07061A   25346.14563262 -.00000082  00000+0 -14910-4 0  9991",
        "tle_line2": "2 32382  98.5801 350.7442 0001115  85.4978 274.6332 14.29981039939223"
      },
      "geometry": {
        "type": "Point",
        "coordinates": [
          46.860439416954485,
          -79.66175591370168
        ]
      }
    },
    {
      "type": "Feature",
      "properties": {
        "norad_id": 32783,
        "name": "CARTOSAT-2A",
        "group": "resource",
        "lat": 47.83768065162906,
        "lon": 27.544316969685887,
        "alt_km": 622.269793122824,
        "timestamp": "2025-12-12T09:49:08.384525+00:00",
        "meta_object_name": "CARTOSAT-2A",
        "meta_object_id": "2008-021A",
        "meta_epoch": "2025-12-12T04:43:47.680896",
        "meta_mean_motion": 14.78936799,
        "meta_eccentricity": 0.0011939,
        "meta_inclination": 97.7929,
        "meta_ra_of_asc_node": 36.0373,
        "meta_arg_of_pericenter": 6.5733,
        "meta_mean_anomaly": 353.5633,
        "meta_ephemeris_type": 0,
        "meta_classification_type": "U",
        "meta_norad_cat_id": 32783,
        "meta_element_set_no": 999,
        "meta_rev_at_epoch": 95116,
        "meta_bstar": 0.00022405,
        "meta_mean_motion_dot": 1.604e-05,
        "meta_mean_motion_ddot": 0,
        "tle_line1": "1 32783U 08021A   25346.19707964  .00001604  00000+0  22405-3 0  9993",
        "tle_line2": "2 32783  97.7929  36.0373 0011939   6.5733 353.5633 14.78936799951160"
      },
      "geometry": {
        "type": "Point",
        "coordinates": [
          27.544316969685887,
          47.83768065162906
        ]
      }
    },
    {
      "type": "Feature",
      "properties": {
        "norad_id": 33320,
        "name": "HUANJING 1A (HJ-1A)",
        "group": "resource",
        "lat": -82.15977154258263,
        "lon": 77.11899031063015,
        "alt_km": 634.526228529423,
        "timestamp": "2025-12-12T09:49:08.384536+00:00",
        "meta_object_name": "HUANJING 1A (HJ-1A)",
        "meta_object_id": "2008-041A",
        "meta_epoch": "2025-12-12T05:22:29.621280",
        "meta_mean_motion": 14.83393215,
        "meta_eccentricity": 0.0020197,
        "meta_inclination": 97.6545,
        "meta_ra_of_asc_node": 334.5442,
        "meta_arg_of_pericenter": 36.1436,
        "meta_mean_anomaly": 324.1139,
        "meta_ephemeris_type": 0,
        "meta_classification_type": "U",
        "meta_norad_cat_id": 33320,
        "meta_element_set_no": 999,
        "meta_rev_at_epoch": 93068,
        "meta_bstar": 0.00032171,
        "meta_mean_motion_dot": 2.597e-05,
        "meta_mean_motion_ddot": 0,
        "tle_line1": "1 33320U 08041A   25346.22395395  .00002597  00000+0  32171-3 0  9991",
        "tle_line2": "2 33320  97.6545 334.5442 0020197  36.1436 324.1139 14.83393215930684"
      },
      "geometry": {
        "type": "Point",
        "coordinates": [
          77.11899031063015,
          -82.15977154258263
        ]
      }
    },
    {
      "type": "Feature",
      "properties": {
        "norad_id": 33321,
        "name": "HUANJING 1B (HJ-1B)",
        "group": "resource",
        "lat": 48.70343782174086,
        "lon": 167.20931956058084,
        "alt_km": 600.274929833924,
        "timestamp": "2025-12-12T09:49:08.384546+00:00",
        "meta_object_name": "HUANJING 1B (HJ-1B)",
        "meta_object_id": "2008-041B",
        "meta_epoch": "2025-12-12T05:59:46.664160",
        "meta_mean_motion": 14.82820234,
        "meta_eccentricity": 0.0038186,
        "meta_inclination": 97.6403,
        "meta_ra_of_asc_node": 338.267,
        "meta_arg_of_pericenter": 77.2093,
        "meta_mean_anomaly": 283.3384,
        "meta_ephemeris_type": 0,
        "meta_classification_type": "U",
        "meta_norad_cat_id": 33321,
        "meta_element_set_no": 999,
        "meta_rev_at_epoch": 93070,
        "meta_bstar": 0.00033419,
        "meta_mean_motion_dot": 2.687e-05,
        "meta_mean_motion_ddot": 0,
        "tle_line1": "1 33321U 08041B   25346.24984565  .00002687  00000+0  33419-3 0  9993",
        "tle_line2": "2 33321  97.6403 338.2670 0038186  77.2093 283.3384 14.82820234930700"
      },
      "geometry": {
        "type": "Point",
        "coordinates": [
          167.20931956058084,
          48.70343782174086
        ]
      }
    },
    {
      "type": "Feature",
      "properties": {
        "norad_id": 33331,
        "name": "GEOEYE 1",
        "group": "resource",
        "lat": 41.54421606590724,
        "lon": -115.03320132524485,
        "alt_km": 675.8270341063444,
        "timestamp": "2025-12-12T09:49:08.384557+00:00",
        "meta_object_name": "GEOEYE 1",
        "meta_object_id": "2008-042A",
        "meta_epoch": "2025-12-12T04:16:23.824992",
        "meta_mean_motion": 14.64811573,
        "meta_eccentricity": 0.000274,
        "meta_inclination": 98.1253,
        "meta_ra_of_asc_node": 57.4658,
        "meta_arg_of_pericenter": 278.8059,
        "meta_mean_anomaly": 81.2834,
        "meta_ephemeris_type": 0,
        "meta_classification_type": "U",
        "meta_norad_cat_id": 33331,
        "meta_element_set_no": 999,
        "meta_rev_at_epoch": 92277,
        "meta_bstar": 0.00019042,
        "meta_mean_motion_dot": 9.68e-06,
        "meta_mean_motion_ddot": 0,
        "tle_line1": "1 33331U 08042A   25346.17805353  .00000968  00000+0  19042-3 0  9990",
        "tle_line2": "2 33331  98.1253  57.4658 0002740 278.8059  81.2834 14.64811573922773"
      },
      "geometry": {
        "type": "Point",
        "coordinates": [
          -115.03320132524485,
          41.54421606590724
        ]
      }
    },
    {
      "type": "Feature",
      "properties": {
        "norad_id": 33396,
        "name": "THEOS",
        "group": "resource",
        "lat": 47.0153464039128,
        "lon": 35.17845118586379,
        "alt_km": 820.2786232768685,
        "timestamp": "2025-12-12T09:49:08.384568+00:00",
        "meta_object_name": "THEOS",
        "meta_object_id": "2008-049A",
        "meta_epoch": "2025-12-12T04:31:19.683264",
        "meta_mean_motion": 14.20096102,
        "meta_eccentricity": 0.0001146,
        "meta_inclination": 98.5864,
        "meta_ra_of_asc_node": 44.2937,
        "meta_arg_of_pericenter": 95.5638,
        "meta_mean_anomaly": 264.567,
        "meta_ephemeris_type": 0,
        "meta_classification_type": "U",
        "meta_norad_cat_id": 33396,
        "meta_element_set_no": 999,
        "meta_rev_at_epoch": 89142,
        "meta_bstar": 2.4599e-05,
        "meta_mean_motion_dot": 1e-07,
        "meta_mean_motion_ddot": 0,
        "tle_line1": "1 33396U 08049A   25346.18842226  .00000010  00000+0  24599-4 0  9991",
        "tle_line2": "2 33396  98.5864  44.2937 0001146  95.5638 264.5670 14.20096102891422"
      },
      "geometry": {
        "type": "Point",
        "coordinates": [
          35.17845118586379,
          47.0153464039128
        ]
      }
    }
  ]
}